GAOFEN-2                
1 40118U 14049A   26116.82399515  .00000847  00000+0  11659-3 0  9993
2 40118  98.0141 181.0734 0008464  47.0910 313.1011 14.80840422631638
YAOGAN-21               
1 40143U 14053A   26116.81826118  .00007110  00000+0  28224-3 0  9995
2 40143  97.1530 159.2750 0006272 275.1452  84.9071 15.25617777647128
YAOGAN-22               
1 40275U 14063A   26116.85121699 -.00000010  00000+0  96803-4 0  9990
2 40275 100.7645 267.2860 0005802 308.5683  51.4908 13.15529623553065
ASNARO                  
1 40298U 14070A   26116.79579111  .00008947  00000+0  42266-3 0  9991
2 40298  97.3462 194.2880 0002807  20.5663 339.5685 15.19640413636207
YAOGAN-24               
1 40310U 14072A   26116.83827882  .00000857  00000+0  13144-3 0  9999
2 40310  98.1401 253.7652 0015240  69.9296 290.3552 14.76154405616147
CBERS 4                 
1 40336U 14079A   26116.87600464 -.00000057  00000+0 -52661-5 0  9996
2 40336  98.3392 175.3240 0001300 130.0071 230.1230 14.35544373596594
YAOGAN-26               
1 40362U 14088A   26116.81595149  .00027560  00000+0  57895-3 0  9990
2 40362  97.0659 118.3068 0002882 200.4415 159.6720 15.45308686629762
SMAP                    
1 40376U 15003A   26116.79803745  .00000440  00000+0  94228-4 0  9994
2 40376  98.1294 124.6168 0001776  77.0763 283.0637 14.63392293600102
KOMPSAT-3A              
1 40536U 15014A   26116.88121587  .00035561  00000+0  55949-3 0  9999
2 40536  97.6896 104.5908 0059324   6.5110 353.6898 15.51469319613857
SENTINEL-2A             
1 40697U 15028A   26116.81609480  .00000205  00000+0  94705-4 0  9999
2 40697  98.5621 192.4011 0001280  86.3985 273.7344 14.30823700566383
GAOFEN-8                
1 40701U 15030A   26116.85734376  .00026452  00000+0  57797-3 0  9996
2 40701  97.6939 307.2159 0009299  27.8096 332.3647 15.44120511603523
CARBONITE 1 (CBNT-1)    
1 40718U 15032D   26116.78611912  .00002269  00000+0  28193-3 0  9996
2 40718  97.6499 297.0155 0015963 102.2715 258.0288 14.83421747581724
YAOGAN-27               
1 40878U 15040A   26116.86653370  .00000342  00000+0  10134-2 0  9990
2 40878 100.1142 105.4817 0007994 338.2502  21.8271 13.16068596510918
GAOFEN-9 01             
1 40894U 15047A   26116.84524310  .00000998  00000+0  12906-3 0  9991
2 40894  97.6324 154.8629 0026131 310.7068  49.1877 14.82789264572585
YAOGAN-28               
1 41026U 15064A   26116.81874622  .00008733  00000+0  33412-3 0  9999
2 41026  97.2993 256.1759 0011029  21.0040 339.1649 15.26753253582840
YAOGAN-29               
1 41038U 15069A   26116.83382875  .00000558  00000+0  75253-4 0  9990
2 41038  98.0078 145.3775 0001844 139.5086 220.6265 14.83041534563012
KENT RIDGE 1            
1 41167U 15077B   26116.81710494  .00004873  00000+0  17039-3 0  9993
2 41167  14.9800 287.9276 0008321 234.4737 125.4809 15.22814129573254
