[{"OBJECT_NAME":"GAOFEN-2","OBJECT_ID":"2014-049A","EPOCH":"2026-04-26T19:46:33.180960","MEAN_MOTION":14.80840422,"ECCENTRICITY":0.0008464,"INCLINATION":98.0141,"RA_OF_ASC_NODE":181.0734,"ARG_OF_PERICENTER":47.091,"MEAN_ANOMALY":313.1011,"EPHEMERIS_TYPE":0,"CLASSIFICATION_TYPE":"U","NORAD_CAT_ID":40118,"ELEMENT_SET_NO":999,"REV_AT_EPOCH":63163,"BSTAR":0.00011659,"MEAN_MOTION_DOT":8.47e-6,"MEAN_MOTION_DDOT":0},{"OBJECT_NAME":"YAOGAN-21","OBJECT_ID":"2014-053A","EPOCH":"2026-04-26T19:38:17.765952","MEAN_MOTION":15.25617777,"ECCENTRICITY":0.0006272,"INCLINATION":97.153,"RA_OF_ASC_NODE":159.275,"ARG_OF_PERICENTER":275.1452,"MEAN_ANOMALY":84.9071,"EPHEMERIS_TYPE":0,"CLASSIFICATION_TYPE":"U","NORAD_CAT_ID":40143,"ELEMENT_SET_NO":999,"REV_AT_EPOCH":64712,"BSTAR":0.00028224,"MEAN_MOTION_DOT":7.11e-5,"MEAN_MOTION_DDOT":0},{"OBJECT_NAME":"YAOGAN-22","OBJECT_ID":"2014-063A","EPOCH":"2026-04-26T20:25:45.147936","MEAN_MOTION":13.15529623,"ECCENTRICITY":0.0005802,"INCLINATION":100.7645,"RA_OF_ASC_NODE":267.286,"ARG_OF_PERICENTER":308.5683,"MEAN_ANOMALY":51.4908,"EPHEMERIS_TYPE":0,"CLASSIFICATION_TYPE":"U","NORAD_CAT_ID":40275,"ELEMENT_SET_NO":999,"REV_AT_EPOCH":55306,"BSTAR":9.6803e-5,"MEAN_MOTION_DOT":-1.0e-7,"MEAN_MOTION_DDOT":0},{"OBJECT_NAME":"ASNARO","OBJECT_ID":"2014-070A","EPOCH":"2026-04-26T19:05:56.351904","MEAN_MOTION":15.19640413,"ECCENTRICITY":0.0002807,"INCLINATION":97.3462,"RA_OF_ASC_NODE":194.288,"ARG_OF_PERICENTER":20.5663,"MEAN_ANOMALY":339.5685,"EPHEMERIS_TYPE":0,"CLASSIFICATION_TYPE":"U","NORAD_CAT_ID":40298,"ELEMENT_SET_NO":999,"REV_AT_EPOCH":63620,"BSTAR":0.00042266,"MEAN_MOTION_DOT":8.947e-5,"MEAN_MOTION_DDOT":0},{"OBJECT_NAME":"YAOGAN-24","OBJECT_ID":"2014-072A","EPOCH":"2026-04-26T20:07:07.290048","MEAN_MOTION":14.76154405,"ECCENTRICITY":0.001524,"INCLINATION":98.1401,"RA_OF_ASC_NODE":253.7652,"ARG_OF_PERICENTER":69.9296,"MEAN_ANOMALY":290.3552,"EPHEMERIS_TYPE":0,"CLASSIFICATION_TYPE":"U","NORAD_CAT_ID":40310,"ELEMENT_SET_NO":999,"REV_AT_EPOCH":61614,"BSTAR":0.00013144,"MEAN_MOTION_DOT":8.57e-6,"MEAN_MOTION_DDOT":0},{"OBJECT_NAME":"CBERS 4","OBJECT_ID":"2014-079A","EPOCH":"2026-04-26T21:01:26.800896","MEAN_MOTION":14.35544373,"ECCENTRICITY":0.00013,"INCLINATION":98.3392,"RA_OF_ASC_NODE":175.324,"ARG_OF_PERICENTER":130.0071,"MEAN_ANOMALY":230.123,"EPHEMERIS_TYPE":0,"CLASSIFICATION_TYPE":"U","NORAD_CAT_ID":40336,"ELEMENT_SET_NO":999,"REV_AT_EPOCH":59659,"BSTAR":-5.2661e-6,"MEAN_MOTION_DOT":-5.7e-7,"MEAN_MOTION_DDOT":0},{"OBJECT_NAME":"YAOGAN-26","OBJECT_ID":"2014-088A","EPOCH":"2026-04-26T19:34:58.208736","MEAN_MOTION":15.45308686,"ECCENTRICITY":0.0002882,"INCLINATION":97.0659,"RA_OF_ASC_NODE":118.3068,"ARG_OF_PERICENTER":200.4415,"MEAN_ANOMALY":159.672,"EPHEMERIS_TYPE":0,"CLASSIFICATION_TYPE":"U","NORAD_CAT_ID":40362,"ELEMENT_SET_NO":999,"REV_AT_EPOCH":62976,"BSTAR":0.00057895,"MEAN_MOTION_DOT":0.0002756,"MEAN_MOTION_DDOT":0},{"OBJECT_NAME":"SMAP","OBJECT_ID":"2015-003A","EPOCH":"2026-04-26T19:09:10.435680","MEAN_MOTION":14.63392293,"ECCENTRICITY":0.0001776,"INCLINATION":98.1294,"RA_OF_ASC_NODE":124.6168,"ARG_OF_PERICENTER":77.0763,"MEAN_ANOMALY":283.0637,"EPHEMERIS_TYPE":0,"CLASSIFICATION_TYPE":"U","NORAD_CAT_ID":40376,"ELEMENT_SET_NO":999,"REV_AT_EPOCH":60010,"BSTAR":9.4228e-5,"MEAN_MOTION_DOT":4.4e-6,"MEAN_MOTION_DDOT":0},{"OBJECT_NAME":"KOMPSAT-3A","OBJECT_ID":"2015-014A","EPOCH":"2026-04-26T21:08:57.051168","MEAN_MOTION":15.51469319,"ECCENTRICITY":0.0059324,"INCLINATION":97.6896,"RA_OF_ASC_NODE":104.5908,"ARG_OF_PERICENTER":6.511,"MEAN_ANOMALY":353.6898,"EPHEMERIS_TYPE":0,"CLASSIFICATION_TYPE":"U","NORAD_CAT_ID":40536,"ELEMENT_SET_NO":999,"REV_AT_EPOCH":61385,"BSTAR":0.00055949,"MEAN_MOTION_DOT":0.00035561,"MEAN_MOTION_DDOT":0},{"OBJECT_NAME":"SENTINEL-2A","OBJECT_ID":"2015-028A","EPOCH":"2026-04-26T19:35:10.590720","MEAN_MOTION":14.308237,"ECCENTRICITY":0.000128,"INCLINATION":98.5621,"RA_OF_ASC_NODE":192.4011,"ARG_OF_PERICENTER":86.3985,"MEAN_ANOMALY":273.7344,"EPHEMERIS_TYPE":0,"CLASSIFICATION_TYPE":"U","NORAD_CAT_ID":40697,"ELEMENT_SET_NO":999,"REV_AT_EPOCH":56638,"BSTAR":9.4705e-5,"MEAN_MOTION_DOT":2.05e-6,"MEAN_MOTION_DDOT":0},{"OBJECT_NAME":"GAOFEN-8","OBJECT_ID":"2015-030A","EPOCH":"2026-04-26T20:34:34.500864","MEAN_MOTION":15.44120511,"ECCENTRICITY":0.0009299,"INCLINATION":97.6939,"RA_OF_ASC_NODE":307.2159,"ARG_OF_PERICENTER":27.8096,"MEAN_ANOMALY":332.3647,"EPHEMERIS_TYPE":0,"CLASSIFICATION_TYPE":"U","NORAD_CAT_ID":40701,"ELEMENT_SET_NO":999,"REV_AT_EPOCH":60352,"BSTAR":0.00057797,"MEAN_MOTION_DOT":0.00026452,"MEAN_MOTION_DDOT":0},{"OBJECT_NAME":"CARBONITE 1 (CBNT-1)","OBJECT_ID":"2015-032D","EPOCH":"2026-04-26T18:52:00.691968","MEAN_MOTION":14.83421747,"ECCENTRICITY":0.0015963,"INCLINATION":97.6499,"RA_OF_ASC_NODE":297.0155,"ARG_OF_PERICENTER":102.2715,"MEAN_ANOMALY":258.0288,"EPHEMERIS_TYPE":0,"CLASSIFICATION_TYPE":"U","NORAD_CAT_ID":40718,"ELEMENT_SET_NO":999,"REV_AT_EPOCH":58172,"BSTAR":0.00028193,"MEAN_MOTION_DOT":2.269e-5,"MEAN_MOTION_DDOT":0},{"OBJECT_NAME":"YAOGAN-27","OBJECT_ID":"2015-040A","EPOCH":"2026-04-26T20:47:48.511680","MEAN_MOTION":13.16068596,"ECCENTRICITY":0.0007994,"INCLINATION":100.1142,"RA_OF_ASC_NODE":105.4817,"ARG_OF_PERICENTER":338.2502,"MEAN_ANOMALY":21.8271,"EPHEMERIS_TYPE":0,"CLASSIFICATION_TYPE":"U","NORAD_CAT_ID":40878,"ELEMENT_SET_NO":999,"REV_AT_EPOCH":51091,"BSTAR":0.0010134,"MEAN_MOTION_DOT":3.42e-6,"MEAN_MOTION_DDOT":0},{"OBJECT_NAME":"GAOFEN-9 01","OBJECT_ID":"2015-047A","EPOCH":"2026-04-26T20:17:09.003840","MEAN_MOTION":14.82789264,"ECCENTRICITY":0.0026131,"INCLINATION":97.6324,"RA_OF_ASC_NODE":154.8629,"ARG_OF_PERICENTER":310.7068,"MEAN_ANOMALY":49.1877,"EPHEMERIS_TYPE":0,"CLASSIFICATION_TYPE":"U","NORAD_CAT_ID":40894,"ELEMENT_SET_NO":999,"REV_AT_EPOCH":57258,"BSTAR":0.00012906,"MEAN_MOTION_DOT":9.98e-6,"MEAN_MOTION_DDOT":0},{"OBJECT_NAME":"YAOGAN-28","OBJECT_ID":"2015-064A","EPOCH":"2026-04-26T19:38:59.673408","MEAN_MOTION":15.26753253,"ECCENTRICITY":0.0011029,"INCLINATION":97.2993,"RA_OF_ASC_NODE":256.1759,"ARG_OF_PERICENTER":21.004,"MEAN_ANOMALY":339.1649,"EPHEMERIS_TYPE":0,"CLASSIFICATION_TYPE":"U","NORAD_CAT_ID":41026,"ELEMENT_SET_NO":999,"REV_AT_EPOCH":58284,"BSTAR":0.00033412,"MEAN_MOTION_DOT":8.733e-5,"MEAN_MOTION_DDOT":0},{"OBJECT_NAME":"YAOGAN-29","OBJECT_ID":"2015-069A","EPOCH":"2026-04-26T20:00:42.804000","MEAN_MOTION":14.83041534,"ECCENTRICITY":0.0001844,"INCLINATION":98.0078,"RA_OF_ASC_NODE":145.3775,"ARG_OF_PERICENTER":139.5086,"MEAN_ANOMALY":220.6265,"EPHEMERIS_TYPE":0,"CLASSIFICATION_TYPE":"U","NORAD_CAT_ID":41038,"ELEMENT_SET_NO":999,"REV_AT_EPOCH":56301,"BSTAR":7.5253e-5,"MEAN_MOTION_DOT":5.58e-6,"MEAN_MOTION_DDOT":0},{"OBJECT_NAME":"KENT RIDGE 1","OBJECT_ID":"2015-077B","EPOCH":"2026-04-26T19:36:37.866816","MEAN_MOTION":15.22814129,"ECCENTRICITY":0.0008321,"INCLINATION":14.98,"RA_OF_ASC_NODE":287.9276,"ARG_OF_PERICENTER":234.4737,"MEAN_ANOMALY":125.4809,"EPHEMERIS_TYPE":0,"CLASSIFICATION_TYPE":"U","NORAD_CAT_ID":41167,"ELEMENT_SET_NO":999,"REV_AT_EPOCH":57325,"BSTAR":0.00017039,"MEAN_MOTION_DOT":4.873e-5,"MEAN_MOTION_DDOT":0}]
